[{"OBJECT_NAME":"STARLINK-31587","OBJECT_ID":"2024-076G","EPOCH":"2026-03-08T20:36:15.484320","MEAN_MOTION":15.27566597,"ECCENTRICITY":0.00016366,"INCLINATION":43.0037,"RA_OF_ASC_NODE":13.8613,"ARG_OF_PERICENTER":266.6818,"MEAN_ANOMALY":93.3846,"EPHEMERIS_TYPE":0,"CLASSIFICATION_TYPE":"U","NORAD_CAT_ID":59570,"ELEMENT_SET_NO":999,"REV_AT_EPOCH":10639,"BSTAR":9.7555693e-5,"MEAN_MOTION_DOT":2.422e-5,"MEAN_MOTION_DDOT":0},{"OBJECT_NAME":"TEVEL2-9","OBJECT_ID":"2025-052AD","EPOCH":"2026-03-09T16:51:18.321696","MEAN_MOTION":15.28633834,"ECCENTRICITY":0.000799,"INCLINATION":97.4057,"RA_OF_ASC_NODE":324.3929,"ARG_OF_PERICENTER":124.2475,"MEAN_ANOMALY":235.9522,"EPHEMERIS_TYPE":0,"CLASSIFICATION_TYPE":"U","NORAD_CAT_ID":63237,"ELEMENT_SET_NO":999,"REV_AT_EPOCH":5481,"BSTAR":0.00067240159,"MEAN_MOTION_DOT":0.00018694,"MEAN_MOTION_DDOT":0}]
